NORAD_CAT_ID,OBJECT_NAME,OBJECT_TYPE,EPOCH,MEAN_MOTION,ECCENTRICITY,INCLINATION,RA_OF_ASC_NODE,ARG_OF_PERICENTER,MEAN_ANOMALY,BSTAR,MEAN_MOTION_DOT,MEAN_MOTION_DDOT,TLE_LINE0,TLE_LINE1,TLE_LINE2,SEMIMAJOR_AXIS,PERIOD,APOGEE,PERIGEE,DECAYED
53435.0,STARLINK-4542,PAYLOAD,2024-08-19 03:00:09,15.08843701,0.0001438,53.2163,131.8157,102.3488,257.7665,0.00012409,1.688e-05,0.0,0 STARLINK-4542,1 53435U 22097AZ  24232.12511179  .00001688  00000-0  12409-3 0  9992,2 53435  53.2163 131.8157 0001438 102.3488 257.7665 15.08843701112627,6917.869,95.437,540.729,538.739,0.0
53435.0,STARLINK-4542,PAYLOAD,2024-08-19 10:57:05,15.08845617,0.0001396,53.2164,130.3289,108.2949,251.8196,0.00016939,2.409e-05,0.0,0 STARLINK-4542,1 53435U 22097AZ  24232.45631001  .00002409  00000-0  16939-3 0  9999,2 53435  53.2164 130.3289 0001396 108.2949 251.8196 15.08845617113137,6917.863,95.437,540.694,538.762,0.0
53435.0,STARLINK-4542,PAYLOAD,2024-08-20 02:50:57,15.08835741,0.0001374,53.2162,127.3546,112.6139,247.4998,4.5902e-05,4.43e-06,0.0,0 STARLINK-4542,1 53435U 22097AZ  24233.11871778  .00000443  00000-0  45902-4 0  9999,2 53435  53.2162 127.3546 0001374 112.6139 247.4998 15.08835741112770,6917.893,95.438,540.709,538.808,0.0
53435.0,STARLINK-4542,PAYLOAD,2024-08-20 20:20:11,15.08847688,0.0001538,53.2165,124.0852,133.4756,226.6364,6.8896e-05,8.09e-06,0.0,0 STARLINK-4542,1 53435U 22097AZ  24233.84734958  .00000809  00000-0  68896-4 0  9990,2 53435  53.2165 124.0852 0001538 133.4756 226.6364 15.08847688112886,6917.857,95.437,540.786,538.658,0.0
53435.0,STARLINK-4542,PAYLOAD,2024-08-21 02:41:43,15.0884973,0.0001396,53.216,122.8964,108.7463,251.368,0.00016792,2.386e-05,0.0,0 STARLINK-4542,1 53435U 22097AZ  24234.11231029  .00002386  00000-0  16792-3 0  9991,2 53435  53.2160 122.8964 0001396 108.7463 251.3680 15.08849730113385,6917.851,95.437,540.681,538.75,0.0
53435.0,STARLINK-4542,PAYLOAD,2024-08-21 20:10:58,15.08839128,0.0001457,53.216,119.6247,106.8107,253.3045,0.00015225,2.136e-05,0.0,0 STARLINK-4542,1 53435U 22097AZ  24234.84095583  .00002136  00000-0  15225-3 0  9997,2 53435  53.2160 119.6247 0001457 106.8107 253.3045 15.08839128113494,6917.883,95.438,540.756,538.74,0.0
53435.0,STARLINK-4542,PAYLOAD,2024-08-21 23:21:44,15.08838688,0.0001323,53.216,119.0303,88.5601,271.5543,5.3698e-05,5.67e-06,0.0,0 STARLINK-4542,1 53435U 22097AZ  24234.97343666  .00000567  00000-0  53698-4 0  9992,2 53435  53.2160 119.0303 0001323  88.5601 271.5543 15.08838688113055,6917.884,95.438,540.665,538.834,0.0
